{"fetched_at":"2026-07-12T05:53:09.106Z","source":"https://celestrak.org/NORAD/elements/gp.php?NAME=PLEIADES&FORMAT=JSON","constellation":"pleiades-neo","records":[{"OBJECT_NAME":"PLEIADES NEO 3","OBJECT_ID":"2021-034A","EPOCH":"2026-07-11T20:02:20.748768","CLASSIFICATION_TYPE":"U","MEAN_MOTION":14.81678131,"ECCENTRICITY":0.0001364,"INCLINATION":97.8941,"RA_OF_ASC_NODE":267.2469,"ARG_OF_PERICENTER":94.7977,"MEAN_ANOMALY":265.3392,"EPHEMERIS_TYPE":0,"NORAD_CAT_ID":48268,"ELEMENT_SET_NO":999,"REV_AT_EPOCH":28130,"BSTAR":0.00010942,"MEAN_MOTION_DOT":0.00000809,"MEAN_MOTION_DDOT":0},{"OBJECT_NAME":"PLEIADES NEO 4","OBJECT_ID":"2021-073E","EPOCH":"2026-07-11T20:50:57.616224","CLASSIFICATION_TYPE":"U","MEAN_MOTION":14.81673249,"ECCENTRICITY":0.0001339,"INCLINATION":97.8939,"RA_OF_ASC_NODE":267.2763,"ARG_OF_PERICENTER":91.7532,"MEAN_ANOMALY":268.3834,"EPHEMERIS_TYPE":0,"NORAD_CAT_ID":49070,"ELEMENT_SET_NO":999,"REV_AT_EPOCH":26502,"BSTAR":0.000016123,"MEAN_MOTION_DOT":7.5e-7,"MEAN_MOTION_DDOT":0}]}
